[{"OBJECT_NAME":"STARLINK-5227","OBJECT_ID":"2022-141AA","EPOCH":"2026-03-09T23:22:03.275328","MEAN_MOTION":15.08822733,"ECCENTRICITY":0.00013917,"INCLINATION":53.2188,"RA_OF_ASC_NODE":2.6237,"ARG_OF_PERICENTER":50.0725,"MEAN_ANOMALY":310.0389,"EPHEMERIS_TYPE":0,"CLASSIFICATION_TYPE":"U","NORAD_CAT_ID":54181,"ELEMENT_SET_NO":999,"REV_AT_EPOCH":18590,"BSTAR":-0.00013242959,"MEAN_MOTION_DOT":-2.394e-5,"MEAN_MOTION_DDOT":0},{"OBJECT_NAME":"LEMUR-2-STELLA","OBJECT_ID":"2024-149BT","EPOCH":"2026-03-09T17:26:15.951264","MEAN_MOTION":15.09464064,"ECCENTRICITY":0.0001299,"INCLINATION":97.6764,"RA_OF_ASC_NODE":150.9122,"ARG_OF_PERICENTER":95.1117,"MEAN_ANOMALY":265.026,"EPHEMERIS_TYPE":0,"CLASSIFICATION_TYPE":"U","NORAD_CAT_ID":60533,"ELEMENT_SET_NO":999,"REV_AT_EPOCH":8548,"BSTAR":0.00085776432,"MEAN_MOTION_DOT":0.00013685,"MEAN_MOTION_DDOT":0}]
